OBJECT_NAME,OBJECT_ID,EPOCH,MEAN_MOTION,ECCENTRICITY,INCLINATION,RA_OF_ASC_NODE,ARG_OF_PERICENTER,MEAN_ANOMALY,EPHEMERIS_TYPE,CLASSIFICATION_TYPE,NORAD_CAT_ID,ELEMENT_SET_NO,REV_AT_EPOCH,BSTAR,MEAN_MOTION_DOT,MEAN_MOTION_DDOT
IRIDIUM 138,2017-083B,2026-07-07T18:12:27.260640,14.34209526,.0003109,86.4039,313.1172,102.6508,257.5035,0,U,43071,999,44708,.62679E-4,.195E-5,0
IRIDIUM 116,2017-083C,2026-07-07T19:07:14.971584,14.34219280,.0002352,86.3982,313.3852,100.7753,259.3708,0,U,43072,999,44712,.76222E-4,.233E-5,0
IRIDIUM 130,2017-083D,2026-07-07T18:21:35.071200,14.34216647,.0002014,86.4001,313.6774,101.8295,258.3127,0,U,43073,999,44706,.72086E-4,.222E-5,0
IRIDIUM 151,2017-083E,2026-07-07T17:45:02.977056,14.34218756,.0002225,86.3985,313.4674,94.2777,265.8673,0,U,43074,999,44708,.26326E-4,.94E-6,0
IRIDIUM 134,2017-083F,2026-07-07T18:39:51.120864,14.34217095,.0002056,86.3982,313.4598,95.1002,265.0429,0,U,43075,999,44705,-.38585E-4,-.88E-6,0
IRIDIUM 137,2017-083G,2026-07-07T17:17:39.269760,14.34216695,.0002633,86.3986,313.5768,97.0260,263.1236,0,U,43076,999,44711,.75683E-4,.232E-5,0
IRIDIUM 141,2017-083H,2026-07-07T17:08:31.093728,14.34218120,.0002183,86.3981,313.4088,92.2332,267.9114,0,U,43077,999,44711,.12456E-4,.55E-6,0
IRIDIUM 153,2017-083J,2026-07-07T17:40:07.368096,14.34216776,.0002097,86.3962,281.8802,95.4509,264.6927,0,U,43078,999,44822,.74964E-4,.23E-5,0
IRIDIUM 131,2017-083K,2026-07-07T18:30:43.133184,14.34217670,.0002129,86.3984,313.5723,93.1304,267.0135,0,U,43079,999,44705,-.68207E-5,.1E-7,0
IRIDIUM 144,2018-030A,2026-07-07T17:49:15.393792,14.34217989,.0002356,86.3962,281.8060,97.7717,262.3746,0,U,43249,999,43308,.15888E-4,.64E-6,0
IRIDIUM 149,2018-030B,2026-07-07T17:58:23.364192,14.34216620,.0002176,86.3958,281.7708,94.3625,265.7819,0,U,43250,999,43310,.52131E-4,.166E-5,0
IRIDIUM 157,2018-030C,2026-07-07T18:25:47.436960,14.34216195,.0002246,86.3964,281.8154,94.9761,265.1691,0,U,43251,999,43308,.6437E-4,.2E-5,0
IRIDIUM 140,2018-030D,2026-07-07T17:12:43.089696,14.34219440,.0002222,86.3962,281.8495,95.8702,264.2747,0,U,43252,999,43313,.42107E-4,.138E-5,0
IRIDIUM 145,2018-030E,2026-07-07T18:34:54.984000,14.34215815,.0002406,86.3964,281.7969,102.3569,257.7896,0,U,43253,999,43307,.49086E-4,.157E-5,0
IRIDIUM 146,2018-030F,2026-07-07T18:07:31.346688,14.34213161,.0002763,86.3966,281.8185,102.2234,257.9271,0,U,43254,999,43308,.45781E-4,.148E-5,0
IRIDIUM 148,2018-030G,2026-07-07T17:21:51.460992,14.34217248,.0002324,86.3961,281.8745,92.9159,267.2303,0,U,43255,999,43311,.50726E-4,.162E-5,0
IRIDIUM 142,2018-030H,2026-07-07T18:16:39.436320,14.34216675,.0002351,86.3961,281.7470,99.1607,260.9854,0,U,43256,999,43308,.96996E-4,.291E-5,0
IRIDIUM 150,2018-030J,2026-07-07T19:11:27.193056,14.34218951,.0002241,86.3964,281.8482,96.5695,263.5756,0,U,43257,999,43311,.2878E-4,.1E-5,0
IRIDIUM 143,2018-030K,2026-07-07T18:44:03.323328,14.34216549,.0002365,86.3969,281.9481,100.2764,259.8699,0,U,43258,999,43304,.53132E-4,.169E-5,0
IRIDIUM 161,2018-047C,2026-07-07T18:14:45.106656,14.43283686,.0002375,86.4471,79.8685,79.1479,280.9989,0,U,43478,999,42810,.65193E-4,.239E-5,0
IRIDIUM 152,2018-047D,2026-07-07T18:04:46.977600,14.34218170,.0002179,86.3945,79.7328,82.0109,278.1334,0,U,43479,999,42543,.61166E-4,.191E-5,0
IRIDIUM 147,2018-047E,2026-07-07T18:13:53.892192,14.34216466,.0002419,86.3942,79.7353,93.5094,266.6379,0,U,43480,999,42543,.54465E-4,.172E-5,0
IRIDIUM 110,2018-047F,2026-07-07T18:23:02.032800,14.34216931,.0004423,86.3947,79.8260,111.4185,248.7483,0,U,43481,999,42542,.62835E-4,.196E-5,0
IRIDIUM 162,2018-047G,2026-07-07T18:05:40.852320,14.43282486,.0002218,86.4469,79.7620,84.0459,276.0994,0,U,43482,999,42809,.66444E-4,.244E-5,0
IRIDIUM 160,2018-061A,2026-07-07T02:00:50.516928,14.34213932,.00025238,86.3945,48.4757,85.2920,274.8564,0,U,43569,999,41622,.39494906E-4,.13E-5,0
IRIDIUM 166,2018-061B,2026-07-07T00:56:54.396672,14.34217934,.00022352,86.3943,48.4446,89.2418,270.9034,0,U,43570,999,41624,.2830175E-5,.28E-6,0
IRIDIUM 158,2018-061C,2026-07-07T16:55:54.306624,14.34217669,.0002134,86.3941,48.1761,86.0979,274.0461,0,U,43571,999,41630,.42205E-4,.138E-5,0
IRIDIUM 165,2018-061D,2026-07-06T16:25:26.221728,14.34218995,.00021826,86.3945,48.6499,89.8150,270.3296,0,U,43572,999,41618,.33268476E-4,.113E-5,0
IRIDIUM 155,2018-061E,2026-07-07T16:37:38.157600,14.34217606,.0002137,86.3941,48.0960,87.9715,272.1725,0,U,43573,999,41629,.60769E-4,.19E-5,0
IRIDIUM 154,2018-061F,2026-07-07T16:10:14.263680,14.34216230,.0002286,86.3948,48.2389,89.8394,270.3064,0,U,43574,999,41634,.49585E-4,.159E-5,0
IRIDIUM 163,2018-061G,2026-07-07T00:38:38.245920,14.34216465,.00022177,86.3941,48.4239,86.1815,273.9634,0,U,43575,999,41622,.60240819E-4,.188E-5,0
