IRIDIUM 138             
1 43071U 17083B   26188.75864885  .00000195  00000+0  62679-4 0  9998
2 43071  86.4039 313.1172 0003109 102.6508 257.5035 14.34209526447086
IRIDIUM 116             
1 43072U 17083C   26188.79670106  .00000233  00000+0  76222-4 0  9996
2 43072  86.3982 313.3852 0002352 100.7753 259.3708 14.34219280447120
IRIDIUM 130             
1 43073U 17083D   26188.76498925  .00000222  00000+0  72086-4 0  9993
2 43073  86.4001 313.6774 0002014 101.8295 258.3127 14.34216647447069
IRIDIUM 151             
1 43074U 17083E   26188.73961779  .00000094  00000+0  26326-4 0  9996
2 43074  86.3985 313.4674 0002225  94.2777 265.8673 14.34218756447085
IRIDIUM 134             
1 43075U 17083F   26188.77767501 -.00000088  00000+0 -38585-4 0  9993
2 43075  86.3982 313.4598 0002056  95.1002 265.0429 14.34217095447054
IRIDIUM 137             
1 43076U 17083G   26188.72059340  .00000232  00000+0  75683-4 0  9993
2 43076  86.3986 313.5768 0002633  97.0260 263.1236 14.34216695447114
IRIDIUM 141             
1 43077U 17083H   26188.71424877  .00000055  00000+0  12456-4 0  9996
2 43077  86.3981 313.4088 0002183  92.2332 267.9114 14.34218120447113
IRIDIUM 153             
1 43078U 17083J   26188.73619639  .00000230  00000+0  74964-4 0  9998
2 43078  86.3962 281.8802 0002097  95.4509 264.6927 14.34216776448224
IRIDIUM 131             
1 43079U 17083K   26188.77133256  .00000001  00000+0 -68207-5 0  9990
2 43079  86.3984 313.5723 0002129  93.1304 267.0135 14.34217670447050
IRIDIUM 144             
1 43249U 18030A   26188.74253928  .00000064  00000+0  15888-4 0  9992
2 43249  86.3962 281.8060 0002356  97.7717 262.3746 14.34217989433083
IRIDIUM 149             
1 43250U 18030B   26188.74888153  .00000166  00000+0  52131-4 0  9993
2 43250  86.3958 281.7708 0002176  94.3625 265.7819 14.34216620433101
IRIDIUM 157             
1 43251U 18030C   26188.76791015  .00000200  00000+0  64370-4 0  9993
2 43251  86.3964 281.8154 0002246  94.9761 265.1691 14.34216195433086
IRIDIUM 140             
1 43252U 18030D   26188.71716539  .00000138  00000+0  42107-4 0  9991
2 43252  86.3962 281.8495 0002222  95.8702 264.2747 14.34219440433136
IRIDIUM 145             
1 43253U 18030E   26188.77424750  .00000157  00000+0  49086-4 0  9993
2 43253  86.3964 281.7969 0002406 102.3569 257.7896 14.34215815433070
IRIDIUM 146             
1 43254U 18030F   26188.75522392  .00000148  00000+0  45781-4 0  9991
2 43254  86.3966 281.8185 0002763 102.2234 257.9271 14.34213161433080
IRIDIUM 148             
1 43255U 18030G   26188.72351228  .00000162  00000+0  50726-4 0  9998
2 43255  86.3961 281.8745 0002324  92.9159 267.2303 14.34217248433116
IRIDIUM 142             
1 43256U 18030H   26188.76156755  .00000291  00000+0  96996-4 0  9993
2 43256  86.3961 281.7470 0002351  99.1607 260.9854 14.34216675433088
IRIDIUM 150             
1 43257U 18030J   26188.79962029  .00000100  00000+0  28780-4 0  9991
2 43257  86.3964 281.8482 0002241  96.5695 263.5756 14.34218951433115
IRIDIUM 143             
1 43258U 18030K   26188.78059402  .00000169  00000+0  53132-4 0  9997
2 43258  86.3969 281.9481 0002365 100.2764 259.8699 14.34216549433045
IRIDIUM 161             
1 43478U 18047C   26188.76024429  .00000239  00000+0  65193-4 0  9996
2 43478  86.4471  79.8685 0002375  79.1479 280.9989 14.43283686428100
IRIDIUM 152             
1 43479U 18047D   26188.75332150  .00000191  00000+0  61166-4 0  9992
2 43479  86.3945  79.7328 0002179  82.0109 278.1334 14.34218170425436
IRIDIUM 147             
1 43480U 18047E   26188.75965153  .00000172  00000+0  54465-4 0  9992
2 43480  86.3942  79.7353 0002419  93.5094 266.6379 14.34216466425437
IRIDIUM 110             
1 43481U 18047F   26188.76599575  .00000196  00000+0  62835-4 0  9991
2 43481  86.3947  79.8260 0004423 111.4185 248.7483 14.34216931425422
IRIDIUM 162             
1 43482U 18047G   26188.75394505  .00000244  00000+0  66444-4 0  9991
2 43482  86.4469  79.7620 0002218  84.0459 276.0994 14.43282486428096
IRIDIUM 160             
1 43569U 18061A   26188.08391802  .00000130  00000+0  39495-4 0  9996
2 43569  86.3945  48.4757 0002523  85.2920 274.8564 14.34213932416220
IRIDIUM 166             
1 43570U 18061B   26188.03951848  .00000028  00000+0  28302-5 0  9997
2 43570  86.3943  48.4446 0002235  89.2418 270.9034 14.34217934416248
IRIDIUM 158             
1 43571U 18061C   26188.70548966  .00000138  00000+0  42205-4 0  9994
2 43571  86.3941  48.1761 0002134  86.0979 274.0461 14.34217669416300
IRIDIUM 165             
1 43572U 18061D   26187.68433127  .00000113  00000+0  33268-4 0  9995
2 43572  86.3945  48.6499 0002182  89.8150 270.3296 14.34218995416187
IRIDIUM 155             
1 43573U 18061E   26188.69280275  .00000190  00000+0  60769-4 0  9993
2 43573  86.3941  48.0960 0002137  87.9715 272.1725 14.34217606416294
IRIDIUM 154             
1 43574U 18061F   26188.67377620  .00000159  00000+0  49585-4 0  9991
2 43574  86.3948  48.2389 0002286  89.8394 270.3064 14.34216230416342
IRIDIUM 163             
1 43575U 18061G   26188.02683155  .00000188  00000+0  60241-4 0  9998
2 43575  86.3941  48.4239 0002217  86.1815 273.9634 14.34216465416223
